NORAD_CAT_ID,OBJECT_NAME,OBJECT_TYPE,EPOCH,MEAN_MOTION,ECCENTRICITY,INCLINATION,RA_OF_ASC_NODE,ARG_OF_PERICENTER,MEAN_ANOMALY,BSTAR,MEAN_MOTION_DOT,MEAN_MOTION_DDOT,TLE_LINE0,TLE_LINE1,TLE_LINE2,SEMIMAJOR_AXIS,PERIOD,APOGEE,PERIGEE,DECAYED
51879.0,STARLINK-3572,PAYLOAD,2022-12-30 11:39:13,15.08846706,0.0001831999999999,53.2161,189.9286,59.0239,301.0933,9.4517e-05,1.217e-05,0.0,0 STARLINK-3572,1 51879U 22022AD  22364.48557109  .00001217  00000-0  94517-4 0  9995,2 51879  53.2161 189.9286 0001832  59.0239 301.0933 15.08846706 47347,6917.86,95.437,540.992,538.4580000000002,0.0
51879.0,STARLINK-3572,PAYLOAD,2022-12-31 05:08:28,15.08842105,0.0001885,53.2161,186.6575,59.9773,300.1406,0.00013255,1.822e-05,0.0,0 STARLINK-3572,1 51879U 22022AD  22365.21421373  .00001822  00000-0  13255-3 0  9991,2 51879  53.2161 186.6575 0001885  59.9773 300.1406 15.08842105 47458,6917.874,95.437,541.043,538.435,0.0
51879.0,STARLINK-3572,PAYLOAD,2022-12-31 13:05:23,15.08837561,0.0001899,53.2151,185.1704,67.7178,292.4016,-1.5037e-05,-5.27e-06,0.0,0 STARLINK-3572,1 51879U 22022AD  22365.54541404 -.00000527  00000-0 -15037-4 0  9999,2 51879  53.2151 185.1704 0001899  67.7178 292.4016 15.08837561 47502,6917.888000000001,95.438,541.067,538.439,0.0
51879.0,STARLINK-3572,PAYLOAD,2022-12-31 17:51:33,15.08835018,0.0001813,53.216,184.2773,63.0288,297.0889,-5.0002e-05,-1.084e-05,0.0,0 STARLINK-3572,1 51879U 22022AD  22365.74413532 -.00001084  00000-0 -50002-4 0  9991,2 51879  53.2160 184.2773 0001813  63.0288 297.0889 15.08835018 47532,6917.896,95.438,541.015,538.506,0.0
51879.0,STARLINK-3572,PAYLOAD,2023-01-01 04:59:15,15.08836435,0.000179,53.2169,182.1961,51.8444,308.2709,-8.1248e-07,-3.01e-06,0.0,0 STARLINK-3572,1 51879U 22022AD  23001.20782108 -.00000301  00000-0 -81248-6 0  9997,2 51879  53.2169 182.1961 0001790  51.8444 308.2709 15.08836435 47608,6917.891,95.438,540.995,538.518,0.0
51879.0,STARLINK-3572,PAYLOAD,2023-01-01 12:56:11,15.08839037,0.0001788,53.2167,180.7098,63.8205,296.2971,1.4516e-05,-5.7e-07,0.0,0 STARLINK-3572,1 51879U 22022AD  23001.53901952 -.00000057  00000-0  14516-4 0  9992,2 51879  53.2167 180.7098 0001788  63.8205 296.2971 15.08839037 47659,6917.8830000000025,95.438,540.985,538.511,0.0
51879.0,STARLINK-3572,PAYLOAD,2023-01-01 20:53:06,15.08839744,0.0001759,53.2166,179.2229,62.7992,297.318,3.9714e-05,3.44e-06,0.0,0 STARLINK-3572,1 51879U 22022AD  23001.87021880  .00000344  00000-0  39714-4 0  9997,2 51879  53.2166 179.2229 0001759  62.7992 297.3180 15.08839744 47701,6917.880999999999,95.438,540.9630000000002,538.529,0.0
51879.0,STARLINK-3572,PAYLOAD,2023-01-02 04:50:02,15.0884329,0.0001710999999999,53.2167,177.7362,59.0306,301.0854,5.8639e-05,6.45e-06,0.0,0 STARLINK-3572,1 51879U 22022AD  23002.20141603  .00000645  00000-0  58639-4 0  9992,2 51879  53.2167 177.7362 0001711  59.0306 301.0854 15.08843290 47756,6917.87,95.437,540.919,538.552,0.0
51879.0,STARLINK-3572,PAYLOAD,2023-01-02 12:46:57,15.0885448,0.0001639,53.2168,176.2497,59.8534,300.262,-6.6504e-05,-1.347e-05,0.0,0 STARLINK-3572,1 51879U 22022AD  23002.53261084 -.00001347  00000-0 -66504-4 0  9996,2 51879  53.2168 176.2497 0001639  59.8534 300.2620 15.08854480 47801,6917.8359999999975,95.437,540.835,538.567,0.0
51879.0,STARLINK-3572,PAYLOAD,2023-01-02 17:33:06,15.08856068,0.0001816,53.2167,175.3574,58.1743,301.9426,-4.5264e-05,-1.009e-05,0.0,0 STARLINK-3572,1 51879U 22022AD  23002.73132843 -.00001009  00000-0 -45264-4 0  9993,2 51879  53.2167 175.3574 0001816  58.1743 301.9426 15.08856068 47836,6917.831,95.437,540.953,538.44,0.0
51879.0,STARLINK-3572,PAYLOAD,2023-01-03 04:40:49,15.08843881,0.0001768,53.2167,173.2761,59.5575,300.5591,0.00018121,2.597e-05,0.0,0 STARLINK-3572,1 51879U 22022AD  23003.19501519  .00002597  00000-0  18121-3 0  9996,2 51879  53.2167 173.2761 0001768  59.5575 300.5591 15.08843881 47900,6917.869000000002,95.437,540.957,538.51,0.0
51879.0,STARLINK-3572,PAYLOAD,2023-01-03 14:13:08,15.08837252,0.0001817,53.2153,171.4917,60.3483,299.7689,6.4704e-05,7.42e-06,0.0,0 STARLINK-3572,1 51879U 22022AD  23003.59245989  .00000742  00000-0  64704-4 0  9995,2 51879  53.2153 171.4917 0001817  60.3483 299.7689 15.08837252 47969,6917.889,95.438,541.011,538.497,0.0
51879.0,STARLINK-3572,PAYLOAD,2023-01-04 04:31:36,15.08847037,0.000182,53.2164,168.8156,61.5754,298.5421,0.00012102,1.639e-05,0.0,0 STARLINK-3572,1 51879U 22022AD  23004.18861411  .00001639  00000-0  12102-3 0  9995,2 51879  53.2164 168.8156 0001820  61.5754 298.5421 15.08847037 48058,6917.859,95.437,540.9830000000002,538.465,0.0
51879.0,STARLINK-3572,PAYLOAD,2023-01-04 10:53:08,15.08852225,0.0001825,53.2164,167.6259,62.0841,298.0336,0.00012708,1.736e-05,0.0,0 STARLINK-3572,1 51879U 22022AD  23004.45356942  .00001736  00000-0  12708-3 0  9993,2 51879  53.2164 167.6259 0001825  62.0841 298.0336 15.08852225 48096,6917.843000000003,95.437,540.971,538.446,0.0
51879.0,STARLINK-3572,PAYLOAD,2023-01-04 17:14:41,15.08849108,0.0001921999999999,53.2161,166.4365,64.3581,295.761,7.4967e-05,9.05e-06,0.0,0 STARLINK-3572,1 51879U 22022AD  23004.71853166  .00000905  00000-0  74967-4 0  9995,2 51879  53.2161 166.4365 0001922  64.3581 295.7610 15.08849108 48132,6917.853,95.437,541.047,538.388,0.0
51879.0,STARLINK-3572,PAYLOAD,2023-01-05 10:43:55,15.08846697,0.0001676999999999,53.2168,163.1669,53.6246,306.4901,0.00017326,2.471e-05,0.0,0 STARLINK-3572,1 51879U 22022AD  23005.44716765  .00002471  00000-0  17326-3 0  9994,2 51879  53.2168 163.1669 0001677  53.6246 306.4901 15.08846697 48241,6917.86,95.437,540.885,538.565,0.0
51879.0,STARLINK-3572,PAYLOAD,2023-01-05 18:40:50,15.08849041,0.0001584,53.2156,161.679,53.5872,306.5266,0.00014418,2.008e-05,0.0,0 STARLINK-3572,1 51879U 22022AD  23005.77836695  .00002008  00000-0  14418-3 0  9990,2 51879  53.2156 161.6790 0001584  53.5872 306.5266 15.08849041 48293,6917.853,95.437,540.814,538.622,0.0
51879.0,STARLINK-3572,PAYLOAD,2023-01-06 10:34:43,15.08834189,0.0001839,53.2162,158.7047,54.4368,305.6796,-4.448e-05,-9.96e-06,0.0,0 STARLINK-3572,1 51879U 22022AD  23006.44077574 -.00000996  00000-0 -44480-4 0  9997,2 51879  53.2162 158.7047 0001839  54.4368 305.6796 15.08834189 48391,6917.898,95.438,541.035,538.491,0.0
51879.0,STARLINK-3572,PAYLOAD,2023-01-07 02:28:34,15.08829351,0.0001884,53.2163,155.7312,55.5462,304.5708,-0.00010707,-1.991e-05,0.0,0 STARLINK-3572,1 51879U 22022AD  23007.10318161 -.00001991  00000-0 -10707-3 0  9991,2 51879  53.2163 155.7312 0001884  55.5462 304.5708 15.08829351 48498,6917.913000000001,95.438,541.081,538.475,0.0
51879.0,STARLINK-3572,PAYLOAD,2023-01-07 19:57:49,15.08834909,0.0001688,53.2167,152.4608,52.0159,308.0985,-3.6734e-05,-8.73e-06,0.0,0 STARLINK-3572,1 51879U 22022AD  23007.83182174 -.00000873  00000-0 -36734-4 0  9991,2 51879  53.2167 152.4608 0001688  52.0159 308.0985 15.08834909 48605,6917.896,95.438,540.929,538.5930000000002,0.0
51879.0,STARLINK-3572,PAYLOAD,2023-01-08 10:16:17,15.08837529,0.0001605,53.2166,149.7853,47.5596,312.5532,0.00028878,4.311e-05,0.0,0 STARLINK-3572,1 51879U 22022AD  23008.42798328  .00004311  00000-0  28878-3 0  9999,2 51879  53.2166 149.7853 0001605  47.5596 312.5532 15.08837529 48696,6917.888000000001,95.438,540.863,538.643,0.0
51879.0,STARLINK-3572,PAYLOAD,2023-01-08 18:13:13,15.08843959,0.0001664,53.216,148.2986,36.6212,323.4894,0.00030048,4.498e-05,0.0,0 STARLINK-3572,1 51879U 22022AD  23008.75918066  .00004498  00000-0  30048-3 0  9996,2 51879  53.2160 148.2986 0001664  36.6212 323.4894 15.08843959 48742,6917.868,95.437,540.884,538.582,0.0
51879.0,STARLINK-3572,PAYLOAD,2023-01-10 02:00:55,15.08849056,0.0001778,53.2172,142.3515,47.1958,312.9184,0.00019256,2.779e-05,0.0,0 STARLINK-3572,1 51879U 22022AD  23010.08397606  .00002779  00000-0  19256-3 0  9994,2 51879  53.2172 142.3515 0001778  47.1958 312.9184 15.08849056 48949,6917.853,95.437,540.948,538.488,0.0
51879.0,STARLINK-3572,PAYLOAD,2023-01-10 14:44:00,15.08847757,0.0001684,53.2169,139.9738,45.6599,314.4531,0.00030698,4.602e-05,0.0,0 STARLINK-3572,1 51879U 22022AD  23010.61389447  .00004602  00000-0  30698-3 0  9997,2 51879  53.2169 139.9738 0001684  45.6599 314.4531 15.08847757 49023,6917.857,95.437,540.887,538.557,0.0
51879.0,STARLINK-3572,PAYLOAD,2023-01-11 14:34:47,15.08842816,0.0001602,53.2167,135.512,40.0742,320.0368,7.825699999999999e-05,9.58e-06,0.0,0 STARLINK-3572,1 51879U 22022AD  23011.60749098  .00000958  00000-0  78257-4 0  9993,2 51879  53.2167 135.5120 0001602  40.0742 320.0368 15.08842816 49175,6917.871999999999,95.437,540.845,538.629,0.0
51879.0,STARLINK-3572,PAYLOAD,2023-01-11 17:45:33,15.08844522,0.0001617,53.2167,134.9171,42.3069,317.8047,0.0001004,1.31e-05,0.0,0 STARLINK-3572,1 51879U 22022AD  23011.73996974  .00001310  00000-0  10040-3 0  9992,2 51879  53.2167 134.9171 0001617  42.3069 317.8047 15.08844522 49193,6917.866999999998,95.437,540.85,538.613,0.0
51879.0,STARLINK-3572,PAYLOAD,2023-01-12 01:42:30,15.08823614,0.0002138,53.2165,133.4312,54.0664,306.0527,-0.00019532,-3.394e-05,0.0,0 STARLINK-3572,1 51879U 22022AD  23012.07118541 -.00003394  00000-0 -19532-3 0  9997,2 51879  53.2165 133.4312 0002138  54.0664 306.0527 15.08823614 49240,6917.93,95.439,541.275,538.316,0.0
51879.0,STARLINK-3572,PAYLOAD,2023-01-12 12:50:13,15.0881196,0.0001853,53.2167,131.351,52.0767,308.0393,-0.00032703,-5.485e-05,0.0,0 STARLINK-3572,1 51879U 22022AD  23012.53487561 -.00005485  00000-0 -32703-3 0  9997,2 51879  53.2167 131.3510 0001853  52.0767 308.0393 15.08811960 49316,6917.965999999999,95.439,541.113,538.549,0.0
51879.0,STARLINK-3572,PAYLOAD,2023-01-13 14:16:23,15.08841438,0.0001643,53.2166,126.5925,52.0348,308.0793,0.00054525,8.401e-05,0.0,0 STARLINK-3572,1 51879U 22022AD  23013.59471725  .00008401  00000-0  54525-3 0  9994,2 51879  53.2166 126.5925 0001643  52.0348 308.0793 15.08841438 49477,6917.876,95.437,540.878,538.604,0.0
